NORAD_CAT_ID,OBJECT_NAME,OBJECT_TYPE,EPOCH,MEAN_MOTION,ECCENTRICITY,INCLINATION,RA_OF_ASC_NODE,ARG_OF_PERICENTER,MEAN_ANOMALY,BSTAR,MEAN_MOTION_DOT,MEAN_MOTION_DDOT,TLE_LINE0,TLE_LINE1,TLE_LINE2,SEMIMAJOR_AXIS,PERIOD,APOGEE,PERIGEE,DECAYED
56797.0,STARLINK-6058,PAYLOAD,2023-12-03 03:50:28,14.98312108,0.0002415,70.0032,270.9747,223.4265,136.6705,-0.00012347,-1.565e-05,0.0,0 STARLINK-6058,1 56797U 23078AG  23337.16004884 -.00001565  00000-0 -12347-3 0  9992,2 56797  70.0032 270.9747 0002415 223.4265 136.6705 14.98312108 28982,6950.248,96.108,573.792,570.435,0.0
56797.0,STARLINK-6058,PAYLOAD,2023-12-03 05:26:36,14.98311191,0.0002571,70.0017,270.8033,257.5913,102.4959,-4.1868e-05,-5.92e-06,0.0,0 STARLINK-6058,1 56797U 23078AG  23337.22680835 -.00000592  00000-0 -41868-4 0  9995,2 56797  70.0017 270.8033 0002571 257.5913 102.4959 14.98311191 28739,6950.251,96.108,573.903,570.329,0.0
56797.0,STARLINK-6058,PAYLOAD,2023-12-03 19:51:48,14.98321138,0.0003171,70.0003,269.287,279.6172,80.4629,-5.4664e-05,-7.45e-06,0.0,0 STARLINK-6058,1 56797U 23078AG  23337.82764317 -.00000745  00000-0 -54664-4 0  9997,2 56797  70.0003 269.2870 0003171 279.6172  80.4629 14.98321138 29084,6950.22,96.108,574.289,569.881,0.0
56797.0,STARLINK-6058,PAYLOAD,2023-12-04 05:28:36,14.98325913,0.0003,70.0006,268.2764,277.3767,82.7051,1.8441e-05,1.27e-06,0.0,0 STARLINK-6058,1 56797U 23078AG  23338.22819925  .00000127  00000-0  18441-4 0  9993,2 56797  70.0006 268.2764 0003000 277.3767  82.7051 14.98325913 29140,6950.206,96.107,574.156,569.985,0.0
56797.0,STARLINK-6058,PAYLOAD,2023-12-05 03:54:28,14.98329047,0.0002952,70.0003,265.92,272.8519,87.2302,0.00018368,2.099e-05,0.0,0 STARLINK-6058,1 56797U 23078AG  23339.16283303  .00002099  00000-0  18368-3 0  9999,2 56797  70.0003 265.9200 0002952 272.8519  87.2302 14.98329047 29282,6950.196,96.107,574.113,570.009,0.0
56797.0,STARLINK-6058,PAYLOAD,2023-12-05 05:30:36,14.98330775,0.0002827,70.0006,265.752,267.2529,92.8307,0.00020227,2.321e-05,0.0,0 STARLINK-6058,1 56797U 23078AG  23339.22959134  .00002321  00000-0  20227-3 0  9993,2 56797  70.0006 265.7520 0002827 267.2529  92.8307 14.98330775 29038,6950.19,96.107,574.02,570.091,0.0
56797.0,STARLINK-6058,PAYLOAD,2023-12-06 03:56:30,14.98326635,0.0002637,70.0016,263.3937,279.0766,81.0095,-2.8291e-05,-4.3e-06,0.0,0 STARLINK-6058,1 56797U 23078AG  23340.16424302 -.00000430  00000-0 -28291-4 0  9993,2 56797  70.0016 263.3937 0002637 279.0766  81.0095 14.98326635 29436,6950.203,96.107,573.901,570.236,0.0
56797.0,STARLINK-6058,PAYLOAD,2023-12-06 05:32:38,14.98322155,0.0002678,70.0017,263.2255,283.4099,76.6762,3.6386e-05,3.41e-06,0.0,0 STARLINK-6058,1 56797U 23078AG  23340.23100498  .00000341  00000-0  36386-4 0  9991,2 56797  70.0017 263.2255 0002678 283.4099  76.6762 14.98322155 29188,6950.217,96.108,573.943,570.221,0.0
56797.0,STARLINK-6058,PAYLOAD,2023-12-07 02:22:54,14.97977783,0.0002814,70.0021,261.0388,304.1659,55.9233,-0.0037238,-0.00043847,0.0,0 STARLINK-6058,1 56797U 23078AG  23341.09924709 -.00043847  00000-0 -37238-2 0  9990,2 56797  70.0021 261.0388 0002814 304.1659  55.9233 14.97977783 29579,6951.282,96.13,575.103,571.191,0.0
56797.0,STARLINK-6058,PAYLOAD,2023-12-07 10:23:55,14.97814772,0.0002469,70.0032,260.2001,297.2473,62.8434,-0.0051143,-0.00059795,0.0,0 STARLINK-6058,1 56797U 23078AG  23341.43327714 -.00059795  00000-0 -51143-2 0  9991,2 56797  70.0032 260.2001 0002469 297.2473  62.8434 14.97814772 29620,6951.787,96.14,575.368,571.935,0.0
56797.0,STARLINK-6058,PAYLOAD,2023-12-08 02:26:04,14.97485216,0.0003018,70.002,258.517,288.051,72.032,-0.007455,-0.00086064,0.0,0 STARLINK-6058,1 56797U 23078AG  23342.10144211 -.00086064  00000-0 -74550-2 0  9991,2 56797  70.0020 258.5170 0003018 288.0510  72.0320 14.97485216 29720,6952.807,96.161,576.77,572.573,0.0
56797.0,STARLINK-6058,PAYLOAD,2023-12-08 14:00:01,14.96676565,0.0002835,70.0017,257.3063,273.6268,163.4796,0.0050977,0.00058689,0.0,0 STARLINK-6058,1 56797U 23078AG  23342.58334491  .00058689  00000-0  50977-2 0  9991,2 56797  70.0017 257.3063 0002835 273.6268 163.4796 14.96676565 29797,6955.311,96.213,579.148,575.204,0.0
56797.0,STARLINK-6058,PAYLOAD,2023-12-08 22:00:00,14.9674214,0.0002857,70.002,256.468,274.2609,158.3655,-0.0039057,-0.00044541,0.0,0 STARLINK-6058,1 56797U 23078AG  23342.91667824 -.00044541  00000-0 -39057-2 0  9997,2 56797  70.0020 256.4680 0002857 274.2609 158.3655 14.96742140  5598,6955.108,96.209,578.96,574.985,0.0
56797.0,STARLINK-6058,PAYLOAD,2023-12-09 06:00:00,14.96706294,0.0002887,70.0017,255.6294,278.7251,149.4647,0.001447,0.00016506,0.0,0 STARLINK-6058,1 56797U 23078AG  23343.25001157  .00016506  00000-0  14470-2 0  9996,2 56797  70.0017 255.6294 0002887 278.7251 149.4647 14.96706294 29892,6955.219,96.211,579.092,575.076,0.0
56797.0,STARLINK-6058,PAYLOAD,2023-12-09 14:00:01,14.96678167,0.0002848,70.002,254.7912,271.8272,151.9142,0.0056646,0.0006529,0.0,0 STARLINK-6058,1 56797U 23078AG  23343.58334491  .00065290  00000-0  56646-2 0  9997,2 56797  70.0020 254.7912 0002848 271.8272 151.9142 14.96678167  5694,6955.306,96.213,579.152,575.19,0.0
56797.0,STARLINK-6058,PAYLOAD,2023-12-09 22:00:00,14.96742987,0.0002856,70.0022,253.9529,273.419,145.8482,-0.0032767,-0.00037422,0.0,0 STARLINK-6058,1 56797U 23078AG  23343.91667824 -.00037422  00000-0 -32767-2 0  9999,2 56797  70.0022 253.9529 0002856 273.4190 145.8482 14.96742987  5744,6955.105,96.209,578.956,574.984,0.0
56797.0,STARLINK-6058,PAYLOAD,2023-12-10 14:00:01,14.96847966,0.0002709,70.0022,252.2764,270.8704,139.5761,0.046142,0.00561796,0.0,0 STARLINK-6058,1 56797U 23078AG  23344.58334491  .00561796  00000-0  46142-1 0  9999,2 56797  70.0022 252.2764 0002709 270.8704 139.5761 14.96847966 30095,6954.78,96.202,578.529,574.761,0.0
56797.0,STARLINK-6058,PAYLOAD,2023-12-10 22:00:01,14.97218482,0.0002865,70.0023,251.4378,273.6624,132.7646,0.038607,0.00474341,0.0,0 STARLINK-6058,1 56797U 23078AG  23344.91668981  .00474341  00000-0  38607-1 0  9996,2 56797  70.0023 251.4378 0002865 273.6624 132.7646 14.97218482  5694,6953.632,96.178,577.49,573.505,0.0
56797.0,STARLINK-6058,PAYLOAD,2023-12-11 00:59:48,14.97003204,0.0002318,70.0007,251.1231,273.7254,86.364,0.0031111,0.00035965,0.0,0 STARLINK-6058,1 56797U 23078AG  23345.04153016  .00035965  00000-0  31111-2 0  9998,2 56797  70.0007 251.1231 0002318 273.7254  86.3640 14.97003204 30166,6954.299,96.192,577.776,574.552,0.0
56797.0,STARLINK-6058,PAYLOAD,2023-12-11 14:00:01,14.97817078,0.0002894,70.0021,249.7594,271.8686,127.5509,0.046617,0.00583156,0.0,0 STARLINK-6058,1 56797U 23078AG  23345.58334491  .00583156  00000-0  46617-1 0  9991,2 56797  70.0021 249.7594 0002894 271.8686 127.5509 14.97817078 30247,6951.78,96.14,575.656,571.633,0.0
56797.0,STARLINK-6058,PAYLOAD,2023-12-11 20:13:40,14.97527722,0.0001767,70.0025,249.1059,214.5176,145.5868,0.0073873,0.00087328,0.0,0 STARLINK-6058,1 56797U 23078AG  23345.84282841  .00087328  00000-0  73873-2 0  9996,2 56797  70.0025 249.1059 0001767 214.5176 145.5868 14.97527722 30283,6952.675,96.158,575.769,573.311,0.0
56797.0,STARLINK-6058,PAYLOAD,2023-12-11 21:49:50,14.97541421,0.0002969,70.0024,248.9363,187.1002,173.0116,0.007391,0.00087407,0.0,0 STARLINK-6058,1 56797U 23078AG  23345.90961627  .00087407  00000-0  73910-2 0  9999,2 56797  70.0024 248.9363 0002969 187.1002 173.0116 14.97541421 30032,6952.633,96.158,576.562,572.433,0.0
56797.0,STARLINK-6058,PAYLOAD,2023-12-12 06:00:00,14.98325743,0.0003113,70.0018,248.0791,279.4556,114.4903,-0.00051753,-6.262e-05,0.0,0 STARLINK-6058,1 56797U 23078AG  23346.25001157 -.00006262  00000-0 -51753-3 0  9995,2 56797  70.0018 248.0791 0003113 279.4556 114.4903 14.98325743 30347,6950.206,96.107,574.235,569.907,0.0
56797.0,STARLINK-6058,PAYLOAD,2023-12-12 14:00:01,14.98291543,0.0003044,70.0019,247.2388,272.0904,119.3481,0.00612,0.00073629,0.0,0 STARLINK-6058,1 56797U 23078AG  23346.58334491  .00073629  00000-0  61200-2 0  9997,2 56797  70.0019 247.2388 0003044 272.0904 119.3481 14.98291543  5796,6950.312,96.109,574.292,570.061,0.0
56797.0,STARLINK-6058,PAYLOAD,2023-12-12 22:00:00,14.98357541,0.000308,70.0021,246.3984,274.3205,114.5861,-0.0033246,-0.00039567,0.0,0 STARLINK-6058,1 56797U 23078AG  23346.91667824 -.00039567  00000-0 -33246-2 0  9997,2 56797  70.0021 246.3984 0003080 274.3205 114.5861 14.98357541 30440,6950.108,96.105,574.113,569.832,0.0
56797.0,STARLINK-6058,PAYLOAD,2023-12-13 00:00:00,14.98348307,0.0003062,70.0019,246.1884,275.7563,202.5307,-0.0024338,-0.00029027,0.0,0 STARLINK-6058,1 56797U 23078AG  23347.00001157 -.00029027  00000-0 -24338-2 0  9991,2 56797  70.0019 246.1884 0003062 275.7563 202.5307 14.98348307  5755,6950.136,96.106,574.129,569.873,0.0
56797.0,STARLINK-6058,PAYLOAD,2023-12-13 14:00:01,14.98284511,0.0003057,70.0016,244.7176,269.0471,114.8525,0.006482,0.00078025,0.0,0 STARLINK-6058,1 56797U 23078AG  23347.58334491  .00078025  00000-0  64820-2 0  9994,2 56797  70.0016 244.7176 0003057 269.0471 114.8525 14.98284511 30546,6950.334,96.11,574.323,570.074,0.0
56797.0,STARLINK-6058,PAYLOAD,2023-12-13 22:00:00,14.98351966,0.0003082,70.0017,243.8773,271.2605,110.1,-0.0035822,-0.00042601,0.0,0 STARLINK-6058,1 56797U 23078AG  23347.91667824 -.00042601  00000-0 -35822-2 0  9993,2 56797  70.0017 243.8773 0003082 271.2605 110.1000 14.98351966  5742,6950.125,96.106,574.132,569.848,0.0
56797.0,STARLINK-6058,PAYLOAD,2023-12-14 06:00:00,14.98331047,0.0003081,70.0011,243.0368,273.843,105.008,-0.0011709,-0.00014037,0.0,0 STARLINK-6058,1 56797U 23078AG  23348.25001157 -.00014037  00000-0 -11709-2 0  9992,2 56797  70.0011 243.0368 0003081 273.8430 105.0080 14.98331047 30647,6950.19,96.107,574.196,569.913,0.0
56797.0,STARLINK-6058,PAYLOAD,2023-12-14 14:00:01,14.98287073,0.000308,70.0012,242.1965,266.3389,109.9985,0.0069418,0.00083639,0.0,0 STARLINK-6058,1 56797U 23078AG  23348.58334491  .00083639  00000-0  69418-2 0  9990,2 56797  70.0012 242.1965 0003080 266.3389 109.9985 14.98287073  5794,6950.326,96.11,574.331,570.05,0.0
